OBJECT_NAME,OBJECT_ID,EPOCH,MEAN_MOTION,ECCENTRICITY,INCLINATION,RA_OF_ASC_NODE,ARG_OF_PERICENTER,MEAN_ANOMALY,EPHEMERIS_TYPE,CLASSIFICATION_TYPE,NORAD_CAT_ID,ELEMENT_SET_NO,REV_AT_EPOCH,BSTAR,MEAN_MOTION_DOT,MEAN_MOTION_DDOT
OPS 6582 (TRANSIT 5B-5),1964-083D,2026-07-10T00:26:32.427168,13.57014877,.00405474,90.0756,203.2220,208.5557,179.2762,0,U,965,999,4671,.41220816E-4,.39E-6,0
LES-1,1965-008C,2026-07-10T09:10:47.429760,9.88354804,.00153774,32.1484,349.7636,353.1678,6.8608,0,U,1002,999,21848,-.24998064E-3,.6E-7,0
SOLRAD 7B,1965-016D,2026-07-09T09:52:36.738912,13.94978161,.0018374,70.0771,189.0141,92.1428,268.1782,0,U,1291,999,11980,.48632627E-4,.13E-6,0
SECOR 4 (EGRS 4),1965-027B,2026-07-10T18:51:31.156128,12.92668190,.0032321,90.2489,16.1083,136.4599,284.3308,0,U,1315,999,88997,-.17549E-3,-.4E-6,0
TIROS 10,1965-051A,2026-07-10T07:03:23.303808,14.41638735,.00554152,98.5061,310.5258,10.9543,349.2839,0,U,1430,999,19924,.30200695E-4,.55E-6,0
ALOUETTE 2,1965-098A,2026-07-10T03:13:45.712704,12.28371400,.13306067,79.7977,257.1273,185.9855,172.3830,0,U,1804,999,68209,.14346177E-3,.447E-5,0
OV3-3,1966-070A,2026-07-10T18:45:54.463104,13.46167955,.1009134,81.3265,310.1864,96.4570,275.2286,0,U,2389,999,60214,.45417E-3,.103E-3,0
SECOR 7 (EGRS 7),1966-077B,2026-07-07T05:33:45.644256,8.59615285,.00113421,90.3367,277.6765,40.1785,319.9904,0,U,2411,999,87910,-.12855439E-2,-.1E-7,0
ERS 15,1966-077C,2026-07-08T04:12:32.860512,8.59079516,.00068846,90.3371,277.4806,49.4520,310.6930,0,U,2412,999,39226,0,.2E-7,0
ISIS 1,1969-009A,2026-07-10T07:03:25.503552,11.30436169,.1707051,88.4449,141.8620,201.5501,150.4416,0,U,3669,999,36238,.23884374E-4,.41E-6,0
SECOR 13 (EGRS 13),1969-037B,2026-07-10T03:12:58.057056,13.42977777,.00392439,99.6455,61.6216,193.8922,320.3667,0,U,3891,999,80483,.14086695E-4,-.34E-6,0
ATS 5,1969-069A,2026-07-10T20:15:38.684736,0.99487046,.0005203,0.2868,140.6773,135.5385,31.5289,0,U,4068,999,4656,0,.55E-6,0
OPS 7613 (P/L 4),1969-082E,2026-07-10T01:05:58.468704,13.95999876,.00179742,70.0146,55.0595,101.7591,65.3186,0,U,4237,999,88949,.23438011E-4,-.21E-6,0
OPS 7613 (P/L 1),1969-082B,2026-07-10T06:08:00.803904,13.99202954,.00182012,70.0097,275.4584,28.1614,332.0474,0,U,4256,999,89369,.49106328E-4,.18E-6,0
SHINSEI (MS-F2),1971-080A,2026-07-10T10:37:10.011072,12.74254269,.06399533,32.0575,2.5012,192.8847,165.4657,0,U,5485,999,55222,.764695E-4,.68E-6,0
PROSPERO (BLACK ARROW),1971-093A,2026-07-10T05:09:13.642272,14.01682092,.05017321,82.0380,270.6160,160.9742,201.0948,0,U,5580,999,75175,.31902106E-3,.1515E-4,0
OPS 7898 (P/L 2),1971-110C,2026-07-10T07:22:47.593056,13.74760618,.00065445,69.9910,315.2054,157.9525,202.1852,0,U,5680,999,35139,.25735132E-4,-.26E-6,0
NOAA 2 (ITOS-D),1972-082A,2026-07-10T00:37:52.906656,12.53215694,.00045299,102.0073,209.8478,124.1962,263.9397,0,U,6235,999,45781,.66614823E-4,-.36E-6,0
OSCAR 7 (AO-7),1974-089B,2026-07-10T06:51:38.058624,12.53698448,.00126625,101.9903,204.7731,87.4352,340.9074,0,U,7530,999,36341,.81096817E-4,-.33E-6,0
TIROS N,1978-096A,2026-07-10T11:18:53.135712,14.19381606,.00106346,98.4529,211.4694,168.2148,191.9280,0,U,11060,999,68205,.47693506E-4,.59E-6,0
PHASE 3B (AO-10),1983-058B,2026-07-09T16:55:32.549376,2.05870648,.60033527,25.9319,215.8523,121.8543,310.3469,0,U,14129,999,29595,0,.106E-5,0
HILAT,1983-063A,2026-07-09T15:43:12.259200,14.38725502,.00381391,82.0251,140.1396,221.0607,312.6641,0,U,14154,999,25081,.71168621E-4,.236E-5,0
UOSAT 2 (UO-11),1984-021B,2026-07-10T18:43:22.315296,14.90842185,.0009177,97.8073,157.0938,103.5627,256.6614,0,U,14781,999,26064,.94506E-4,.875E-5,0
NOAA 9,1984-123A,2026-07-10T17:30:57.942720,14.17074110,.001358,99.0983,218.9128,284.3119,209.4506,0,U,15427,999,14675,.44383E-4,.43E-6,0
GEOSAT,1985-021A,2026-07-10T06:46:43.961664,14.39977447,.00017409,108.0410,129.5062,295.2504,64.8458,0,U,15595,999,16609,.53257778E-4,.32E-6,0
EUTELSAT 1-F4 (ECS 4),1987-078B,2026-07-10T16:09:28.115712,0.98691372,.0010117,13.8115,341.9609,46.6991,319.6346,0,U,18351,999,12699,0,-.207E-5,0
PACSAT (AO-16),1990-005D,2026-07-10T07:55:43.434912,14.33943756,.00110113,98.8513,227.5516,158.3621,214.3633,0,U,20439,999,90525,.37520262E-4,.58E-6,0
LUSAT (LO-19),1990-005G,2026-07-09T23:54:39.065472,14.34129751,.00123476,98.8846,213.4297,135.6081,224.6095,0,U,20442,999,90566,.35474089E-4,.53E-6,0
IRS-1B,1991-061A,2026-07-10T07:11:10.682880,13.97875101,.00233321,99.4110,199.8221,301.6413,68.6223,0,U,21688,999,67172,.11558492E-3,.117E-5,0
COSMOS 2197,1992-042A,2026-07-10T07:49:17.549184,12.64252564,.00118941,82.5918,214.1491,216.7406,154.1102,0,U,22034,999,56821,.14618468E-3,.37E-6,0
PEGASUS R/B,1993-009C,2026-07-10T09:28:12.991584,14.57997634,.00440182,24.9784,303.9752,357.6222,2.4077,0,U,22491,999,77302,.74060875E-4,.555E-5,0
EYESAT A (AO-27),1993-061C,2026-07-10T03:28:14.694528,14.30948234,.00090329,98.6870,258.5486,39.7683,320.4160,0,U,22825,999,71028,.30481488E-4,.35E-6,0
ITAMSAT (IO-26),1993-061D,2026-07-10T02:48:43.871616,14.31375759,.0009248,98.6818,258.4411,23.7916,336.3692,0,U,22826,999,71059,.28397099E-4,.31E-6,0
RADIO ROSTO (RS15),1994-085A,2026-07-10T19:06:11.632608,11.27583509,.0156756,64.8159,265.0354,359.5192,0.5559,0,U,23439,999,29856,.19493E-3,-.36E-6,0
JAS-2 (FO-29),1996-046B,2026-07-10T00:12:21.677472,13.53275218,.03505668,98.5223,36.7525,37.3768,325.1213,0,U,24278,999,47625,.43570331E-4,.9E-7,0
FORTE,1997-047A,2026-07-09T12:15:10.041696,14.27954018,.00244717,69.9546,323.5971,250.3649,109.4832,0,U,24920,999,50187,.65171657E-4,.104E-5,0
NOAA 15,1998-030A,2026-07-10T19:30:18.927648,14.27153509,.0009008,98.5063,211.8066,279.4490,80.5672,0,U,25338,999,46466,.45861E-4,.69E-6,0
TECHSAT 1B (GO-32),1998-043D,2026-07-10T09:14:26.592864,14.24432755,.00020595,99.0081,184.7300,122.4891,237.6486,0,U,25397,999,45463,.30598468E-4,.24E-6,0
ISS (ZARYA),1998-067A,2026-07-10T16:04:21.711072,15.48970863,.0006684,51.6301,183.8741,279.9238,80.0995,0,U,25544,999,57539,.10345E-3,.5249E-4,0
ORSTED,1999-008B,2026-07-10T04:49:33.555648,14.51828979,.01334548,96.4809,93.4868,112.5745,248.9639,0,U,25635,999,44530,.84312001E-4,.35E-5,0
LANDSAT 7,1999-020A,2026-07-10T21:39:45.282816,14.63936381,.0001635,97.8587,194.4519,78.9115,33.5935,0,U,25682,999,44931,.49509E-4,.215E-5,0
ORBCOMM FM36,1999-065E,2026-07-10T07:02:12.099840,14.39242789,.00036505,45.0393,49.8910,82.4737,277.6527,0,U,25984,999,39031,.20956657E-3,.513E-5,0
DMSP 5D-3 F15 (USA 147),1999-067A,2026-07-10T19:07:21.696096,14.17570756,.0008906,98.9951,230.6453,298.1966,114.8473,0,U,25991,999,37399,.51221E-4,.58E-6,0
OPAL (OO-38),2000-004C,2026-07-10T06:40:18.235776,14.37973307,.00354507,100.1912,132.3598,330.9737,28.9472,0,U,26063,999,38660,.38805332E-4,.59E-6,0
IMAGE,2000-017A,2026-07-10T09:33:22.635360,1.68666826,.74160542,94.2468,315.6762,285.1805,9.7435,0,U,26113,999,16189,0,-.42E-6,0
CLUSTER II-FM7 (SAMBA),2000-041A,2026-07-11T16:19:30.897408,0.44896530,.90823116,149.8437,55.3938,272.8334,359.6328,0,U,26410,999,2042,0,.12833E-3,0
CLUSTER II-FM8 (TANGO),2000-045B,2026-07-09T22:47:40.483104,0.44423437,.9086576,150.0622,56.2085,273.4793,2.2649,0,U,26464,999,2041,0,.11236E-3,0
MEGSAT-1,2000-057B,2026-07-09T22:16:07.773600,15.05614517,.00429465,64.5506,356.2332,281.1910,78.4381,0,U,26546,999,40108,.13546619E-3,.1815E-4,0
PHASE 3D (AO-40),2000-072B,2026-07-10T08:40:36.173856,1.25588838,.7932588,9.3960,347.2743,185.7635,150.8967,0,U,26609,999,11780,0,-.61E-6,0
ODIN,2001-007A,2026-07-10T01:49:52.658688,15.86650457,.00051617,97.3780,233.6455,144.7958,215.3655,0,U,26702,999,39301,.10947503E-2,.284972E-2,0
OMNI-M1,2001-026A,2026-07-10T03:50:18.343392,3.92401891,.00135986,44.8253,239.9690,57.3232,302.8720,0,U,26857,999,20647,0,.24E-6,0
PCSAT (NO-44),2001-043C,2026-07-10T08:21:00.364896,14.31963832,.00059708,67.0490,184.3668,266.2489,93.7930,0,U,26931,999,29376,.54387225E-4,.63E-6,0
PROBA-1,2001-049B,2026-07-10T19:58:29.231328,15.07603325,.0055942,97.9609,201.1904,44.0668,316.4996,0,U,26958,999,34718,.13349E-3,.2033E-4,0
SPOT 5,2002-021A,2026-07-10T01:48:35.208864,14.54766111,.01289889,97.9836,228.9239,204.6802,154.8190,0,U,27421,999,26617,.45433048E-4,.168E-5,0
FENGYUN 1D,2002-024B,2026-07-10T20:17:35.018016,14.10227457,.0015555,98.9508,242.0667,172.4064,187.7345,0,U,27431,999,24281,.51111E-4,.46E-6,0
SAUDISAT 1C (SO-50),2002-058C,2026-07-10T01:57:58.749408,14.83092603,.00746788,64.5517,58.1476,258.2262,101.0460,0,U,27607,999,26785,.75179496E-4,.486E-5,0
CORIOLIS,2003-001A,2026-07-09T12:49:46.320096,14.19950705,.00146799,98.7131,197.0783,144.6326,215.5827,0,U,27640,999,21739,.48552207E-4,.6E-6,0
CUTE-1 (CO-55),2003-031E,2026-07-10T00:11:45.746304,14.24349450,.00107182,98.6739,199.2802,116.0719,244.1564,0,U,27844,999,19492,.97602803E-4,.182E-5,0
CUBESAT XI-IV (CO-57),2003-031J,2026-07-09T12:23:12.233184,14.23632552,.00103422,98.6771,198.4889,134.3964,225.8063,0,U,27848,999,19455,.91111366E-4,.164E-5,0
MOZHAETS 4 (RS22),2003-042A,2026-07-10T20:28:52.950432,14.73511774,.0010884,98.3480,16.8824,187.1190,285.5664,0,U,27939,999,21903,.18778E-3,.1167E-4,0
IRS-P6 (RESOURCESAT-1),2003-046A,2026-07-10T20:33:54.305856,14.36169039,.0062766,98.1900,227.2107,271.3232,204.1974,0,U,28051,999,18392,-.73734E-5,-.64E-6,0
SAUDISAT 2,2004-025F,2026-07-09T11:45:59.678784,14.56696323,.00237709,98.5516,191.0492,226.2459,133.6771,0,U,28371,999,16899,.45778518E-4,.155E-5,0
COSMOS 2407,2004-028A,2026-07-10T01:26:47.133600,13.76336291,.00389483,82.9590,57.8915,186.4467,342.6114,0,U,28380,999,10302,.2008547E-4,.35E-6,0
COSMOS 2414,2005-002A,2026-07-09T12:35:16.358496,13.87927839,.00386692,82.9485,26.7460,265.6178,94.0566,0,U,28521,999,8691,.29496769E-4,.51E-6,0
INMARSAT 4-F1,2005-009A,2026-07-10T17:52:30.717408,1.00270922,.0002533,5.1982,42.7775,72.2735,259.8459,0,U,28628,999,7790,0,.37E-6,0
HAMSAT (VO-52),2005-017B,2026-07-10T07:38:46.275360,15.09936381,.00177353,97.9907,215.3712,322.0715,37.9263,0,U,28650,999,15025,.1677831E-3,.2659E-4,0
